start=new Date('2022-09-20T00:00:00.000Z').valueOf();
sats=[{"NORAD_CAT_ID":"53610","APOAPSIS":"350.667","FILE":"3578162","INCLINATION":"53.2145","COUNTRY_CODE":"US","BSTAR":"0.00007560300000","RCS_SIZE":"LARGE","ELEMENT_SET_NO":"999","OBJECT_NAME":"STARLINK-4610","REV_AT_EPOCH":"130","DECAY_DATE":null,"CLASSIFICATION_TYPE":"U","MEAN_ELEMENT_THEORY":"SGP4","MEAN_MOTION":"15.73181911","PERIOD":"91.534","OBJECT_ID":"2022-104Y","MEAN_MOTION_DOT":"0.00009995","TLE_LINE2":"2 53610  53.2145 175.2110 0001271 113.1473 240.2183 15.73181911  1306","SEMIMAJOR_AXIS":"6727.947","MEAN_ANOMALY":"240.2183","REF_FRAME":"TEME","SITE":"AFETR","TIME_SYSTEM":"UTC","RA_OF_ASC_NODE":"175.2110","OBJECT_TYPE":"PAYLOAD","ARG_OF_PERICENTER":"113.1473","ECCENTRICITY":"0.00012710","MEAN_MOTION_DDOT":"0.0000000000000","PERIAPSIS":"348.957","LAUNCH_DATE":"2022-08-28","GP_ID":"213035791","CENTER_NAME":"EARTH","EPOCH":"2022-09-19T22:00:00.999936","TLE_LINE1":"1 53610U 22104Y   22262.91667824  .00009995  00000-0  75603-4 0  9998","EPHEMERIS_TYPE":"0"},{"BSTAR":"-0.00051115000000","COUNTRY_CODE":"US","OBJECT_NAME":"STARLINK-4650","RCS_SIZE":"LARGE","ELEMENT_SET_NO":"999","APOAPSIS":"350.334","NORAD_CAT_ID":"53611","INCLINATION":"53.2142","FILE":"3578162","OBJECT_ID":"2022-104Z","MEAN_MOTION_DOT":"-0.00071906","DECAY_DATE":null,"REV_AT_EPOCH":"130","PERIOD":"91.530","MEAN_MOTION":"15.73252977","MEAN_ELEMENT_THEORY":"SGP4","CLASSIFICATION_TYPE":"U","MEAN_MOTION_DDOT":"0.0000000000000","TIME_SYSTEM":"UTC","SITE":"AFETR","REF_FRAME":"TEME","TLE_LINE2":"2 53611  53.2142 175.2129 0001077 115.4126 236.1062 15.73252977  1309","MEAN_ANOMALY":"236.1062","SEMIMAJOR_AXIS":"6727.744","ECCENTRICITY":"0.00010770","ARG_OF_PERICENTER":"115.4126","RA_OF_ASC_NODE":"175.2129","OBJECT_TYPE":"PAYLOAD","TLE_LINE1":"1 53611U 22104Z   22262.91667824 -.00071906  00000-0 -51115-3 0  9993","EPHEMERIS_TYPE":"0","CENTER_NAME":"EARTH","LAUNCH_DATE":"2022-08-28","GP_ID":"213034832","PERIAPSIS":"348.885","EPOCH":"2022-09-19T22:00:00.999936"},{"OBJECT_ID":"2022-104AA","MEAN_MOTION_DOT":"-0.00043664","REV_AT_EPOCH":"130","DECAY_DATE":null,"CLASSIFICATION_TYPE":"U","MEAN_ELEMENT_THEORY":"SGP4","PERIOD":"91.531","MEAN_MOTION":"15.73236348","COUNTRY_CODE":"US","BSTAR":"-0.00030782000000","ELEMENT_SET_NO":"999","RCS_SIZE":"LARGE","OBJECT_NAME":"STARLINK-4658","APOAPSIS":"350.565","NORAD_CAT_ID":"53612","INCLINATION":"53.2144","FILE":"3578162","TLE_LINE1":"1 53612U 22104AA  22262.91667824 -.00043664  00000-0 -30782-3 0  9991","EPHEMERIS_TYPE":"0","LAUNCH_DATE":"2022-08-28","GP_ID":"213035408","PERIAPSIS":"348.748","CENTER_NAME":"EARTH","EPOCH":"2022-09-19T22:00:00.999936","MEAN_MOTION_DDOT":"0.0000000000000","REF_FRAME":"TEME","SEMIMAJOR_AXIS":"6727.792","TLE_LINE2":"2 53612  53.2144 175.2074 0001350 142.0320 213.0954 15.73236348  1305","MEAN_ANOMALY":"213.0954","TIME_SYSTEM":"UTC","SITE":"AFETR","RA_OF_ASC_NODE":"175.2074","OBJECT_TYPE":"PAYLOAD","ECCENTRICITY":"0.00013500","ARG_OF_PERICENTER":"142.0320"},{"OBJECT_ID":"2022-104AB","MEAN_MOTION_DOT":"-0.00080058","DECAY_DATE":null,"REV_AT_EPOCH":"130","PERIOD":"91.530","MEAN_MOTION":"15.73252198","CLASSIFICATION_TYPE":"U","MEAN_ELEMENT_THEORY":"SGP4","BSTAR":"-0.00057017000000","COUNTRY_CODE":"US","OBJECT_NAME":"STARLINK-4655","RCS_SIZE":"LARGE","ELEMENT_SET_NO":"999","APOAPSIS":"350.327","NORAD_CAT_ID":"53613","INCLINATION":"53.2143","FILE":"3578162","TLE_LINE1":"1 53613U 22104AB  22262.91667824 -.00080058  00000-0 -57017-3 0  9990","EPHEMERIS_TYPE":"0","CENTER_NAME":"EARTH","LAUNCH_DATE":"2022-08-28","GP_ID":"213035728","PERIAPSIS":"348.896","EPOCH":"2022-09-19T22:00:00.999936","MEAN_MOTION_DDOT":"0.0000000000000","TIME_SYSTEM":"UTC","SITE":"AFETR","REF_FRAME":"TEME","SEMIMAJOR_AXIS":"6727.746","TLE_LINE2":"2 53613  53.2143 175.2113 0001064 108.6939 244.0589 15.73252198  1304","MEAN_ANOMALY":"244.0589","ECCENTRICITY":"0.00010640","ARG_OF_PERICENTER":"108.6939","OBJECT_TYPE":"PAYLOAD","RA_OF_ASC_NODE":"175.2113"},{"OBJECT_ID":"2022-104AE","MEAN_MOTION_DOT":"-0.00046738","DECAY_DATE":null,"REV_AT_EPOCH":"130","MEAN_MOTION":"15.73236301","PERIOD":"91.531","CLASSIFICATION_TYPE":"U","MEAN_ELEMENT_THEORY":"SGP4","BSTAR":"-0.00032993000000","COUNTRY_CODE":"US","OBJECT_NAME":"STARLINK-4605","RCS_SIZE":"MEDIUM","ELEMENT_SET_NO":"999","NORAD_CAT_ID":"53616","APOAPSIS":"350.459","FILE":"3578162","INCLINATION":"53.2157","TLE_LINE1":"1 53616U 22104AE  22262.91667824 -.00046738  00000-0 -32993-3 0  9996","EPHEMERIS_TYPE":"0","CENTER_NAME":"EARTH","PERIAPSIS":"348.854","LAUNCH_DATE":"2022-08-28","GP_ID":"213035568","EPOCH":"2022-09-19T22:00:00.999936","MEAN_MOTION_DDOT":"0.0000000000000","SITE":"AFETR","TIME_SYSTEM":"UTC","MEAN_ANOMALY":"253.0686","TLE_LINE2":"2 53616  53.2157 174.4992 0001193  85.9437 253.0686 15.73236301  1307","SEMIMAJOR_AXIS":"6727.792","REF_FRAME":"TEME","ECCENTRICITY":"0.00011930","ARG_OF_PERICENTER":"85.9437","RA_OF_ASC_NODE":"174.4992","OBJECT_TYPE":"PAYLOAD"},{"RA_OF_ASC_NODE":"175.2077","OBJECT_TYPE":"PAYLOAD","ECCENTRICITY":"0.00013610","ARG_OF_PERICENTER":"111.3815","MEAN_ANOMALY":"244.3601","TLE_LINE2":"2 53617  53.2148 175.2077 0001361 111.3815 244.3601 15.73192270  1308","SEMIMAJOR_AXIS":"6727.917","REF_FRAME":"TEME","SITE":"AFETR","TIME_SYSTEM":"UTC","MEAN_MOTION_DDOT":"0.0000000000000","EPOCH":"2022-09-19T22:00:00.999936","PERIAPSIS":"348.867","LAUNCH_DATE":"2022-08-28","GP_ID":"213035248","CENTER_NAME":"EARTH","EPHEMERIS_TYPE":"0","TLE_LINE1":"1 53617U 22104AF  22262.91667824  .00022652  00000-0  16543-3 0  9997","FILE":"3578162","INCLINATION":"53.2148","NORAD_CAT_ID":"53617","APOAPSIS":"350.698","OBJECT_NAME":"STARLINK-4601","RCS_SIZE":"LARGE","ELEMENT_SET_NO":"999","COUNTRY_CODE":"US","BSTAR":"0.00016543000000","MEAN_ELEMENT_THEORY":"SGP4","CLASSIFICATION_TYPE":"U","MEAN_MOTION":"15.73192270","PERIOD":"91.534","REV_AT_EPOCH":"130","DECAY_DATE":null,"MEAN_MOTION_DOT":"0.00022652","OBJECT_ID":"2022-104AF"},{"REV_AT_EPOCH":"130","DECAY_DATE":null,"MEAN_ELEMENT_THEORY":"SGP4","CLASSIFICATION_TYPE":"U","MEAN_MOTION":"15.73185764","PERIOD":"91.534","OBJECT_ID":"2022-104AG","MEAN_MOTION_DOT":"0.00023036","NORAD_CAT_ID":"53618","APOAPSIS":"350.485","FILE":"3578162","INCLINATION":"53.2149","COUNTRY_CODE":"US","BSTAR":"0.00016820000000","RCS_SIZE":"LARGE","ELEMENT_SET_NO":"999","OBJECT_NAME":"STARLINK-4604","PERIAPSIS":"349.117","LAUNCH_DATE":"2022-08-28","GP_ID":"213034992","CENTER_NAME":"EARTH","EPOCH":"2022-09-19T22:00:00.999936","TLE_LINE1":"1 53618U 22104AG  22262.91667824  .00023036  00000-0  16820-3 0  9993","EPHEMERIS_TYPE":"0","TLE_LINE2":"2 53618  53.2149 175.2039 0001017 109.8783 248.2209 15.73185764  1309","SEMIMAJOR_AXIS":"6727.936","MEAN_ANOMALY":"248.2209","REF_FRAME":"TEME","SITE":"AFETR","TIME_SYSTEM":"UTC","OBJECT_TYPE":"PAYLOAD","RA_OF_ASC_NODE":"175.2039","ARG_OF_PERICENTER":"109.8783","ECCENTRICITY":"0.00010170","MEAN_MOTION_DDOT":"0.0000000000000"},{"EPHEMERIS_TYPE":"0","TLE_LINE1":"1 53619U 22104AH  22262.91667824 -.00137483  00000-0 -98792-3 0  9996","EPOCH":"2022-09-19T22:00:00.999936","LAUNCH_DATE":"2022-08-28","GP_ID":"213035952","PERIAPSIS":"348.785","CENTER_NAME":"EARTH","MEAN_MOTION_DDOT":"0.0000000000000","RA_OF_ASC_NODE":"175.2042","OBJECT_TYPE":"PAYLOAD","ARG_OF_PERICENTER":"110.4098","ECCENTRICITY":"0.00011170","REF_FRAME":"TEME","TLE_LINE2":"2 53619  53.2143 175.2042 0001117 110.4098 245.9336 15.73278503  1305","MEAN_ANOMALY":"245.9336","SEMIMAJOR_AXIS":"6727.671","TIME_SYSTEM":"UTC","SITE":"AFETR","MEAN_MOTION_DOT":"-0.00137483","OBJECT_ID":"2022-104AH","CLASSIFICATION_TYPE":"U","MEAN_ELEMENT_THEORY":"SGP4","PERIOD":"91.529","MEAN_MOTION":"15.73278503","REV_AT_EPOCH":"130","DECAY_DATE":null,"ELEMENT_SET_NO":"999","RCS_SIZE":"LARGE","OBJECT_NAME":"STARLINK-4609","COUNTRY_CODE":"US","BSTAR":"-0.00098792000000","INCLINATION":"53.2143","FILE":"3578162","APOAPSIS":"350.288","NORAD_CAT_ID":"53619"},{"MEAN_ANOMALY":"243.9223","TLE_LINE2":"2 53620  53.2143 175.1988 0001058 115.3484 243.9223 15.73253817  1306","SEMIMAJOR_AXIS":"6727.742","REF_FRAME":"TEME","SITE":"AFETR","TIME_SYSTEM":"UTC","RA_OF_ASC_NODE":"175.1988","OBJECT_TYPE":"PAYLOAD","ARG_OF_PERICENTER":"115.3484","ECCENTRICITY":"0.00010580","MEAN_MOTION_DDOT":"0.0000000000000","PERIAPSIS":"348.895","LAUNCH_DATE":"2022-08-28","GP_ID":"213035792","CENTER_NAME":"EARTH","EPOCH":"2022-09-19T22:00:00.999936","TLE_LINE1":"1 53620U 22104AJ  22262.91667824 -.00082165  00000-0 -58540-3 0  9991","EPHEMERIS_TYPE":"0","NORAD_CAT_ID":"53620","APOAPSIS":"350.319","FILE":"3578162","INCLINATION":"53.2143","COUNTRY_CODE":"US","BSTAR":"-0.00058540000000","OBJECT_NAME":"STARLINK-4615","RCS_SIZE":"LARGE","ELEMENT_SET_NO":"999","REV_AT_EPOCH":"130","DECAY_DATE":null,"MEAN_ELEMENT_THEORY":"SGP4","CLASSIFICATION_TYPE":"U","MEAN_MOTION":"15.73253817","PERIOD":"91.530","OBJECT_ID":"2022-104AJ","MEAN_MOTION_DOT":"-0.00082165"},{"MEAN_MOTION_DDOT":"0.0000000000000","ECCENTRICITY":"0.00013320","ARG_OF_PERICENTER":"127.1874","OBJECT_TYPE":"PAYLOAD","RA_OF_ASC_NODE":"175.2036","TIME_SYSTEM":"UTC","SITE":"AFETR","REF_FRAME":"TEME","MEAN_ANOMALY":"230.3065","TLE_LINE2":"2 53621  53.2146 175.2036 0001332 127.1874 230.3065 15.73190286  1308","SEMIMAJOR_AXIS":"6727.923","EPHEMERIS_TYPE":"0","TLE_LINE1":"1 53621U 22104AK  22262.91667824  .00023984  00000-0  17489-3 0  9991","EPOCH":"2022-09-19T22:00:00.999936","CENTER_NAME":"EARTH","GP_ID":"213034833","LAUNCH_DATE":"2022-08-28","PERIAPSIS":"348.892","OBJECT_NAME":"STARLINK-4608","RCS_SIZE":"LARGE","ELEMENT_SET_NO":"999","BSTAR":"0.00017489000000","COUNTRY_CODE":"US","INCLINATION":"53.2146","FILE":"3578162","APOAPSIS":"350.684","NORAD_CAT_ID":"53621","MEAN_MOTION_DOT":"0.00023984","OBJECT_ID":"2022-104AK","PERIOD":"91.534","MEAN_MOTION":"15.73190286","CLASSIFICATION_TYPE":"U","MEAN_ELEMENT_THEORY":"SGP4","DECAY_DATE":null,"REV_AT_EPOCH":"130"}];
